TIANYAN 01              
1 44881U 19093C   24039.46984262  .00001751  00000+0  22028-3 0  9996
2 44881  97.8402 118.7473 0015225  31.6819 328.5308 14.83248910223816
RS-44 & BREEZE-KM R/B   
1 44909U 19096E   24039.48725659  .00000013  00000+0  79672-5 0  9994
2 44909  82.5225 190.9344 0217274 354.7423   5.1397 12.79726368192382
BY70-2                  
1 45857U 20042B   24039.48545865  .00056129  00000+0  37931-2 0  9997
2 45857  97.9183 127.4748 0007779 290.6281  69.4111 15.06314828194890
SALSAT                  
1 46495U 20068K   24039.42814119  .00009411  00000+0  56853-3 0  9996
2 46495  97.8004 355.8293 0015699  42.0227 318.2203 15.10812246184709
RADFXSAT-2 (AO-109)     
1 47311U 21002C   24038.92846078  .00127144  00000+0  12312-2 0  9991
2 47311  60.6696 218.4798 0025046  71.8163 288.5667 15.65288098170803
UVSQ-SAT                
1 47438U 21006AB  24039.44112549  .00035442  00000+0  10230-2 0  9998
2 47438  97.3500  99.3563 0007076 329.4042  30.6788 15.35574744168755
LEDSAT                  
1 49069U 21073D   24039.09870151  .00015635  00000+0  72472-3 0  9994
2 49069  97.4549 111.5077 0021674  23.5896 336.6328 15.19950657136664
XW-3 (CAS-9)            
1 50466U 21131B   24039.49194584  .00001084  00000+0  36310-3 0  9999
2 50466  98.5351 125.1834 0004901 144.0114 216.1405 14.39346473111340
TEVEL-3                 
1 50988U 22002E   24039.45922053  .00058471  00000+0  14022-2 0  9999
2 50988  97.4012 111.7333 0005466 112.0030 248.1797 15.41180294114933
TEVEL-8                 
1 50989U 22002F   24039.29537926  .00057317  00000+0  13803-2 0  9997
2 50989  97.4031 111.6506 0005345 111.1411 249.0408 15.41059141114907
TEVEL-5                 
1 50998U 22002Q   24039.09178819  .00062970  00000+0  14199-2 0  9997
2 50998  97.4006 112.1557 0005927 106.0350 254.1551 15.43010039114936
TEVEL-6                 
1 50999U 22002R   24039.28652469  .00061977  00000+0  13982-2 0  9992
2 50999  97.4005 112.3393 0005935 104.9878 255.2027 15.42999347114967
TEVEL-1                 
1 51013U 22002AF  24039.28397227  .00057124  00000+0  13753-2 0  9993
2 51013  97.4004 111.4504 0005229 112.1086 248.0716 15.41068609114902
TEVEL-7                 
1 51062U 22002CG  24039.29079630  .00057628  00000+0  13846-2 0  9995
2 51062  97.4024 111.6166 0005340 111.5594 248.6222 15.41127421114901
TEVEL-4                 
1 51063U 22002CH  24039.44094984  .00057494  00000+0  13882-2 0  9993
2 51063  97.4022 111.7132 0005346 110.4639 249.7182 15.40979190114924
TEVEL-2                 
1 51069U 22002CP  24039.45930294  .00057424  00000+0  13764-2 0  9995
2 51069  97.4009 111.7001 0005416 111.8483 248.3340 15.41200556114936
GREENCUBE               
1 53106U 22080B   24036.98324556 -.00000003  00000+0  00000+0 0  9996
2 53106  70.1299 238.4559 0008315 132.7634 227.3726  6.42557805 36778
CYCLOPS (RS29S)         
1 53373U 22096D   24039.30169468  .00388956  00000+0  17976-2 0  9995
2 53373  97.3906 318.0163 0007517 103.9003 256.3102 15.82476022 84339
MONITOR-1 (RS32S)       
1 53374U 22096E   24038.86902272  .00218328  00000+0  15120-2 0  9998
2 53374  97.3867 316.4229 0006514  92.7013 267.4997 15.73828885 84202
KUZBASS-300 (RS34S)     
1 53375U 22096F   24039.49035699  .00099381  00000+0  13042-2 0  9996
2 53375  97.3978 314.8740 0004371  80.1383 280.0366 15.58193122 84142
UTMN (RS23S)            
1 53376U 22096G   24039.57628379  .00110721  00000+0  13052-2 0  9992
2 53376  97.3955 315.4849 0004918  84.7694 275.4124 15.60989114 84199
MIET-AIS (RS28S)        
1 53377U 22096H   24039.56691658  .00081039  00000+0  11895-2 0  9994
2 53377  97.3997 314.5117 0004024  82.0083 278.1628 15.55232225 84125
KAI-1 (RS26S)           
1 53378U 22096J   24039.57150551  .00052556  00000+0  94004-3 0  9994
2 53378  97.4041 313.3667 0003874  77.4469 282.7215 15.49829550 84042
ISOI (RS19S)            
1 53381U 22096M   24039.60945038  .00084478  00000+0  11752-2 0  9990
2 53381  97.4015 315.1905 0002454  86.4098 273.7437 15.56684928 84179
CUBESX-HSE-2 (RS21S)    
1 53383U 22096P   24039.54692026  .00111199  00000+0  13345-2 0  9992
2 53383  97.3965 315.7013 0002387  91.8742 268.2789 15.60527913 84209
SIREN (RS30S)           
1 53384U 22096Q   24039.56910991  .00065554  00000+0  10413-2 0  9995
2 53384  97.4011 314.3778 0001442  80.3486 279.7930 15.53120895 84110
GEOSCAN-EDELVEIS (RS20S)
1 53385U 22096R   24038.78282308  .00677500  19651-3  17209-2 0  9999
2 53385  97.3850 319.1074 0007304 127.3477 232.8465 15.95426966 84395
CAS-5A (FO-118)         
1 54684U 22167C   24039.56944162  .00026377  00000+0  11419-2 0  9992
2 54684  97.5858 182.2934 0011109 238.4124 121.6028 15.22340159 64536
STRATOSAT-TK 1 (RS52S)  
1 57167U 23091B   24039.54468780  .00015203  00000+0  98637-3 0  9997
2 57167  97.6336  93.2872 0016033 198.4837 161.5810 15.08063706 33998
UMKA 1 (RS40S)          
1 57172U 23091G   24039.55402287  .00007880  00000+0  54736-3 0  9998
2 57172  97.6334  92.9664 0016901 199.2827 160.7763 15.05700644 33971
CUBESX-HSE 3 (RS42S)    
1 57178U 23091N   24039.59370608  .00009457  00000+0  64460-3 0  9996
2 57178  97.6369  93.1772 0017704 192.7200 167.3582 15.06338102 33983
MONITOR-4 (RS57S)       
1 57182U 23091S   24039.61601062  .00009148  00000+0  62829-3 0  9999
2 57182  97.6361  93.1135 0017999 194.4843 165.5870 15.06061521 33989
MONITOR-2 (RS39S)       
1 57184U 23091U   24039.60543436  .00006365  00000+0  43898-3 0  9993
2 57184  97.6367  93.2947 0014362 185.7132 174.3934 15.06080060 33993
SVYATOBOR 1 (RS60S)     
1 57187U 23091X   24039.53140043  .00007884  00000+0  52982-3 0  9996
2 57187  97.6367  93.3962 0014029 183.8024 176.3099 15.06968417 33998
VIZARD-METEO (RS38S)    
1 57189U 23091Z   24039.58184522  .00009587  00000+0  62858-3 0  9998
2 57189  97.6351  93.6148 0013046 182.6175 177.4987 15.07830093 34015
NANOZOND 1 (RS49S)      
1 57190U 23091AA  24039.61308029  .00013963  00000+0  88054-3 0  9993
2 57190  97.6336  93.8030 0011425 186.9080 173.1993 15.09182564 34030
POLYTECH-UNIVERSE 3 (R*)
1 57191U 23091AB  24039.60097859  .00006275  00000+0  43368-3 0  9996
2 57191  97.6332  93.0524 0019408 204.9610 155.0680 15.05933516 33988
UTMN 2 (RS27S)          
1 57203U 23091AP  24039.54025506  .00009278  00000+0  61316-3 0  9992
2 57203  97.6360  93.5145 0013360 182.0537 178.0639 15.07545362 34005
ARCCUBE 1 (RS25S)       
1 57205U 23091AR  24039.58957423  .00015387  00000+0  95732-3 0  9997
2 57205  97.6308  93.7807 0011625 189.0364 171.0658 15.09651153 34038
KUZGTU 1 (RS47S)        
1 57217U 23091AV  24039.59383736  .00008815  00000+0  60223-3 0  9996
2 57217  97.6345  93.1049 0017576 193.9739 166.1004 15.06275993 33989
HADES-D (SO-121)        
1 58567U 23174CY  24039.17526397  .00033422  00000+0  16519-2 0  9993
2 58567  97.4715 115.7190 0014328 326.9100  33.1236 15.17678152 13992
